0 COSMOS 823
1 08873U 76051A   13282.11733809  .00000041  00000-0  28036-4 0  5100
2 08873 082.9644 307.9815 0023520 150.9156 231.9550 13.73182060871386
0 COSMOS 823
1 08873U 76051A   13283.13950216  .00000048  00000-0  34704-4 0  5113
2 08873 082.9642 307.2290 0023601 148.1685 244.8808 13.73182028871529
0 COSMOS 823
1 08873U 76051A   13284.15973891  .00000052  00000-0  39781-4 0  5126
2 08873 082.9640 306.4778 0023648 145.4627 248.2429 13.73182150871664
0 COSMOS 823
1 08873U 76051A   13285.48642503  .00000071  00000-0  60328-4 0  5139
2 08873 082.9638 305.5010 0023705 141.9311 326.4984 13.73182444871846
0 COSMOS 823
1 08873U 76051A   13286.51572983  .00000063  00000-0  50907-4 0  5142
2 08873 082.9636 304.7430 0023749 139.2145 014.6743 13.73182633871988
0 COSMOS 823
1 08873U 76051A   13287.52757758  .00000055  00000-0  42923-4 0  5150
2 08873 082.9635 303.9980 0023774 136.5449 336.5541 13.73182859872122
0 COSMOS 823
1 08873U 76051A   13288.55665263  .00000046  00000-0  33504-4 0  5169
2 08873 082.9634 303.2401 0023792 133.7917 023.6325 13.73183035872267
0 COSMOS 823
1 08873U 76051A   13289.57489328  .00000033  00000-0  18633-4 0  5171
2 08873 082.9634 302.4901 0023847 131.1208 017.1004 13.73183150872405
0 COSMOS 823
1 08873U 76051A   13291.16167672  .00000043  00000-0  30072-4 0  5187
2 08873 082.9636 301.3214 0023899 126.9538 301.0523 13.73183355872629
0 COSMOS 823
1 08873U 76051A   13292.17879372  .00000053  00000-0  40650-4 0  5191
2 08873 082.9637 300.5723 0023921 124.2788 288.9744 13.73183380872761
0 COSMOS 823
1 08873U 76051A   13293.51287013  .00000058  00000-0  45812-4 0  5207
2 08873 082.9638 299.5897 0023927 120.6960 043.7985 13.73183352872942
0 COSMOS 823
1 08873U 76051A   13294.52192105  .00000059  00000-0  47093-4 0  5211
2 08873 082.9639 298.8468 0023932 117.9442 351.9458 13.73183304873081
0 COSMOS 823
1 08873U 76051A   13295.61871840  .00000078  00000-0  67196-4 0  5220
2 08873 082.9639 298.0392 0023969 115.1978 013.6150 13.73183392873238
